STARLINK-31874          
1 60603U 24150W   25358.85540441  .00000535  00000+0  30209-4 0  9991
2 60603  53.1591 294.6429 0001547  82.3651 277.7525 15.30196739 76584
STARLINK-32039          
1 60604U 24150X   25358.84549547 -.00000218  00000+0  47668-5 0  9994
2 60604  53.1627 297.4219 0001482  83.3123 276.8046 15.30191048 76548
STARLINK-11247 [DTC]    
1 60720U 24152A   25358.83291836  .00000891  00000+0  12223-4 0  9993
2 60720  53.1589 125.5941 0001104 108.3360 251.7778 15.69686281 77072
STARLINK-11259 [DTC]    
1 60721U 24152B   25358.70067288 -.00000243  00000+0  28576-5 0  9993
2 60721  53.1584 126.1887 0001118  90.1637 269.9509 15.69681833 77053
STARLINK-11188 [DTC]    
1 60722U 24152C   25358.82309679  .00000167  00000+0  62431-5 0  9992
2 60722  53.1596 125.5317 0001313 130.4082 229.7051 15.69697201 77194
STARLINK-11272 [DTC]    
1 60723U 24152D   25358.74961568 -.00000597  00000+0 -76098-7 0  9990
2 60723  53.1592 125.7771 0000922  97.9323 262.1800 15.69703118 77061
STARLINK-11261 [DTC]    
1 60724U 24152E   25358.56351100  .00005052  00000+0  46524-4 0  9993
2 60724  53.1593 126.7545 0001566 101.5351 258.5842 15.69716486 77035
STARLINK-11263 [DTC]    
1 60725U 24152F   25358.61736724 -.00000425  00000+0  13564-5 0  9998
2 60725  53.1582 126.3738 0001335  73.4984 286.6180 15.69712124 77040
STARLINK-11235 [DTC]    
1 60726U 24152G   25358.35778435  .00000112  00000+0  57861-5 0  9995
2 60726  53.1574 127.5947 0001252  94.0341 266.0820 15.69712317 77138
STARLINK-11080 [DTC]    
1 60727U 24152H   25358.60755303  .00001767  00000+0  19439-4 0  9998
2 60727  53.1588 126.3069 0000957  82.2717 277.8409 15.69709152 77173
STARLINK-11249 [DTC]    
1 60728U 24152J   25358.66633067  .00000250  00000+0  69200-5 0  9995
2 60728  53.1573 125.9609 0000880  92.3138 267.7980 15.69685996 77055
STARLINK-11146 [DTC]    
1 60729U 24152K   25358.78874553  .00003666  00000+0  35109-4 0  9990
2 60729  53.1592 125.2901 0000740  64.2389 295.8705 15.69705746 77206
STARLINK-11255 [DTC]    
1 60730U 24152L   25358.65651155  .00005012  00000+0  46229-4 0  9991
2 60730  53.1585 125.8958 0001128  92.2091 267.9056 15.69693961 77068
STARLINK-11254 [DTC]    
1 60731U 24152M   25358.71527063  .00001962  00000+0  21052-4 0  9996
2 60731  53.1581 125.5494 0000935  68.9024 291.2094 15.69702723 77078
STARLINK-11266 [DTC]    
1 60732U 24152N   25358.83769959  .00003099  00000+0  30435-4 0  9990
2 60732  53.1585 124.8759 0000898  94.5076 265.6044 15.69703141 77085
STARLINK-32253          
1 60733U 24152P   25358.91586678 -.00000068  00000+0  98275-5 0  9996
2 60733  53.1601 255.6705 0001674  66.3201 293.7975 15.30183327 75358
