[{"OBJECT_NAME":"STARLINK-31874","OBJECT_ID":"2024-150W","EPOCH":"2025-12-24T20:31:46.941024","MEAN_MOTION":15.30196739,"ECCENTRICITY":0.00015478,"INCLINATION":53.1591,"RA_OF_ASC_NODE":294.6429,"ARG_OF_PERICENTER":82.3651,"MEAN_ANOMALY":277.7525,"EPHEMERIS_TYPE":0,"CLASSIFICATION_TYPE":"U","NORAD_CAT_ID":60603,"ELEMENT_SET_NO":999,"REV_AT_EPOCH":7658,"BSTAR":3.020907e-5,"MEAN_MOTION_DOT":5.35e-6,"MEAN_MOTION_DDOT":0},{"OBJECT_NAME":"STARLINK-32039","OBJECT_ID":"2024-150X","EPOCH":"2025-12-24T20:17:30.808608","MEAN_MOTION":15.30191048,"ECCENTRICITY":0.00014825,"INCLINATION":53.1627,"RA_OF_ASC_NODE":297.4219,"ARG_OF_PERICENTER":83.3123,"MEAN_ANOMALY":276.8046,"EPHEMERIS_TYPE":0,"CLASSIFICATION_TYPE":"U","NORAD_CAT_ID":60604,"ELEMENT_SET_NO":999,"REV_AT_EPOCH":7654,"BSTAR":4.766818e-6,"MEAN_MOTION_DOT":-2.18e-6,"MEAN_MOTION_DDOT":0},{"OBJECT_NAME":"STARLINK-11247 [DTC]","OBJECT_ID":"2024-152A","EPOCH":"2025-12-24T19:59:24.146304","MEAN_MOTION":15.69686281,"ECCENTRICITY":0.00011046,"INCLINATION":53.1589,"RA_OF_ASC_NODE":125.5941,"ARG_OF_PERICENTER":108.336,"MEAN_ANOMALY":251.7778,"EPHEMERIS_TYPE":0,"CLASSIFICATION_TYPE":"U","NORAD_CAT_ID":60720,"ELEMENT_SET_NO":999,"REV_AT_EPOCH":7707,"BSTAR":1.2223362e-5,"MEAN_MOTION_DOT":8.91e-6,"MEAN_MOTION_DDOT":0},{"OBJECT_NAME":"STARLINK-11259 [DTC]","OBJECT_ID":"2024-152B","EPOCH":"2025-12-24T16:48:58.136832","MEAN_MOTION":15.69681833,"ECCENTRICITY":0.00011185,"INCLINATION":53.1584,"RA_OF_ASC_NODE":126.1887,"ARG_OF_PERICENTER":90.1637,"MEAN_ANOMALY":269.9509,"EPHEMERIS_TYPE":0,"CLASSIFICATION_TYPE":"U","NORAD_CAT_ID":60721,"ELEMENT_SET_NO":999,"REV_AT_EPOCH":7705,"BSTAR":2.85758e-6,"MEAN_MOTION_DOT":-2.43e-6,"MEAN_MOTION_DDOT":0},{"OBJECT_NAME":"STARLINK-11188 [DTC]","OBJECT_ID":"2024-152C","EPOCH":"2025-12-24T19:45:15.562656","MEAN_MOTION":15.69697201,"ECCENTRICITY":0.00013134,"INCLINATION":53.1596,"RA_OF_ASC_NODE":125.5317,"ARG_OF_PERICENTER":130.4082,"MEAN_ANOMALY":229.7051,"EPHEMERIS_TYPE":0,"CLASSIFICATION_TYPE":"U","NORAD_CAT_ID":60722,"ELEMENT_SET_NO":999,"REV_AT_EPOCH":7719,"BSTAR":6.243126e-6,"MEAN_MOTION_DOT":1.67e-6,"MEAN_MOTION_DDOT":0},{"OBJECT_NAME":"STARLINK-11272 [DTC]","OBJECT_ID":"2024-152D","EPOCH":"2025-12-24T17:59:26.794752","MEAN_MOTION":15.69703118,"ECCENTRICITY":9.227e-5,"INCLINATION":53.1592,"RA_OF_ASC_NODE":125.7771,"ARG_OF_PERICENTER":97.9323,"MEAN_ANOMALY":262.18,"EPHEMERIS_TYPE":0,"CLASSIFICATION_TYPE":"U","NORAD_CAT_ID":60723,"ELEMENT_SET_NO":999,"REV_AT_EPOCH":7706,"BSTAR":-7.6098e-8,"MEAN_MOTION_DOT":-5.97e-6,"MEAN_MOTION_DDOT":0},{"OBJECT_NAME":"STARLINK-11261 [DTC]","OBJECT_ID":"2024-152E","EPOCH":"2025-12-24T13:31:27.350400","MEAN_MOTION":15.69716486,"ECCENTRICITY":0.00015661,"INCLINATION":53.1593,"RA_OF_ASC_NODE":126.7545,"ARG_OF_PERICENTER":101.5351,"MEAN_ANOMALY":258.5842,"EPHEMERIS_TYPE":0,"CLASSIFICATION_TYPE":"U","NORAD_CAT_ID":60724,"ELEMENT_SET_NO":999,"REV_AT_EPOCH":7703,"BSTAR":4.6523921e-5,"MEAN_MOTION_DOT":5.052e-5,"MEAN_MOTION_DDOT":0},{"OBJECT_NAME":"STARLINK-11263 [DTC]","OBJECT_ID":"2024-152F","EPOCH":"2025-12-24T14:49:00.529536","MEAN_MOTION":15.69712124,"ECCENTRICITY":0.00013352,"INCLINATION":53.1582,"RA_OF_ASC_NODE":126.3738,"ARG_OF_PERICENTER":73.4984,"MEAN_ANOMALY":286.618,"EPHEMERIS_TYPE":0,"CLASSIFICATION_TYPE":"U","NORAD_CAT_ID":60725,"ELEMENT_SET_NO":999,"REV_AT_EPOCH":7704,"BSTAR":1.356362e-6,"MEAN_MOTION_DOT":-4.25e-6,"MEAN_MOTION_DDOT":0},{"OBJECT_NAME":"STARLINK-11235 [DTC]","OBJECT_ID":"2024-152G","EPOCH":"2025-12-24T08:35:12.567840","MEAN_MOTION":15.69712317,"ECCENTRICITY":0.0001252,"INCLINATION":53.1574,"RA_OF_ASC_NODE":127.5947,"ARG_OF_PERICENTER":94.0341,"MEAN_ANOMALY":266.082,"EPHEMERIS_TYPE":0,"CLASSIFICATION_TYPE":"U","NORAD_CAT_ID":60726,"ELEMENT_SET_NO":999,"REV_AT_EPOCH":7713,"BSTAR":5.786052e-6,"MEAN_MOTION_DOT":1.12e-6,"MEAN_MOTION_DDOT":0},{"OBJECT_NAME":"STARLINK-11080 [DTC]","OBJECT_ID":"2024-152H","EPOCH":"2025-12-24T14:34:52.581792","MEAN_MOTION":15.69709152,"ECCENTRICITY":9.578e-5,"INCLINATION":53.1588,"RA_OF_ASC_NODE":126.3069,"ARG_OF_PERICENTER":82.2717,"MEAN_ANOMALY":277.8409,"EPHEMERIS_TYPE":0,"CLASSIFICATION_TYPE":"U","NORAD_CAT_ID":60727,"ELEMENT_SET_NO":999,"REV_AT_EPOCH":7717,"BSTAR":1.9439264e-5,"MEAN_MOTION_DOT":1.767e-5,"MEAN_MOTION_DDOT":0},{"OBJECT_NAME":"STARLINK-11249 [DTC]","OBJECT_ID":"2024-152J","EPOCH":"2025-12-24T15:59:30.969888","MEAN_MOTION":15.69685996,"ECCENTRICITY":8.8e-5,"INCLINATION":53.1573,"RA_OF_ASC_NODE":125.9609,"ARG_OF_PERICENTER":92.3138,"MEAN_ANOMALY":267.798,"EPHEMERIS_TYPE":0,"CLASSIFICATION_TYPE":"U","NORAD_CAT_ID":60728,"ELEMENT_SET_NO":999,"REV_AT_EPOCH":7705,"BSTAR":6.919963e-6,"MEAN_MOTION_DOT":2.5e-6,"MEAN_MOTION_DDOT":0},{"OBJECT_NAME":"STARLINK-11146 [DTC]","OBJECT_ID":"2024-152K","EPOCH":"2025-12-24T18:55:47.613792","MEAN_MOTION":15.69705746,"ECCENTRICITY":7.404e-5,"INCLINATION":53.1592,"RA_OF_ASC_NODE":125.2901,"ARG_OF_PERICENTER":64.2389,"MEAN_ANOMALY":295.8705,"EPHEMERIS_TYPE":0,"CLASSIFICATION_TYPE":"U","NORAD_CAT_ID":60729,"ELEMENT_SET_NO":999,"REV_AT_EPOCH":7720,"BSTAR":3.5109373e-5,"MEAN_MOTION_DOT":3.666e-5,"MEAN_MOTION_DDOT":0},{"OBJECT_NAME":"STARLINK-11255 [DTC]","OBJECT_ID":"2024-152L","EPOCH":"2025-12-24T15:45:22.597920","MEAN_MOTION":15.69693961,"ECCENTRICITY":0.00011289,"INCLINATION":53.1585,"RA_OF_ASC_NODE":125.8958,"ARG_OF_PERICENTER":92.2091,"MEAN_ANOMALY":267.9056,"EPHEMERIS_TYPE":0,"CLASSIFICATION_TYPE":"U","NORAD_CAT_ID":60730,"ELEMENT_SET_NO":999,"REV_AT_EPOCH":7706,"BSTAR":4.6228799e-5,"MEAN_MOTION_DOT":5.012e-5,"MEAN_MOTION_DDOT":0},{"OBJECT_NAME":"STARLINK-11254 [DTC]","OBJECT_ID":"2024-152M","EPOCH":"2025-12-24T17:09:59.382432","MEAN_MOTION":15.69702723,"ECCENTRICITY":9.354e-5,"INCLINATION":53.1581,"RA_OF_ASC_NODE":125.5494,"ARG_OF_PERICENTER":68.9024,"MEAN_ANOMALY":291.2094,"EPHEMERIS_TYPE":0,"CLASSIFICATION_TYPE":"U","NORAD_CAT_ID":60731,"ELEMENT_SET_NO":999,"REV_AT_EPOCH":7707,"BSTAR":2.1051502e-5,"MEAN_MOTION_DOT":1.962e-5,"MEAN_MOTION_DDOT":0},{"OBJECT_NAME":"STARLINK-11266 [DTC]","OBJECT_ID":"2024-152N","EPOCH":"2025-12-24T20:06:17.244576","MEAN_MOTION":15.69703141,"ECCENTRICITY":8.988e-5,"INCLINATION":53.1585,"RA_OF_ASC_NODE":124.8759,"ARG_OF_PERICENTER":94.5076,"MEAN_ANOMALY":265.6044,"EPHEMERIS_TYPE":0,"CLASSIFICATION_TYPE":"U","NORAD_CAT_ID":60732,"ELEMENT_SET_NO":999,"REV_AT_EPOCH":7708,"BSTAR":3.0435339e-5,"MEAN_MOTION_DOT":3.099e-5,"MEAN_MOTION_DDOT":0},{"OBJECT_NAME":"STARLINK-32253","OBJECT_ID":"2024-152P","EPOCH":"2025-12-24T21:58:50.889792","MEAN_MOTION":15.30183327,"ECCENTRICITY":0.00016742,"INCLINATION":53.1601,"RA_OF_ASC_NODE":255.6705,"ARG_OF_PERICENTER":66.3201,"MEAN_ANOMALY":293.7975,"EPHEMERIS_TYPE":0,"CLASSIFICATION_TYPE":"U","NORAD_CAT_ID":60733,"ELEMENT_SET_NO":999,"REV_AT_EPOCH":7535,"BSTAR":9.827477e-6,"MEAN_MOTION_DOT":-6.8e-7,"MEAN_MOTION_DDOT":0}]
